FENGYUN 1C DEB          
1 36261U 99025DWN 26094.48845284  .00000399  00000+0  52281-3 0  9998
2 36261 101.3594   6.6357 0354762 173.7765 186.7944 13.45582994859497
FENGYUN 1C DEB          
1 36262U 99025DWP 26089.45964231  .00000686  00000+0  29013-3 0  9990
2 36262  98.9504 337.6893 0060130 323.9854  35.7281 14.27967362910349
FENGYUN 1C DEB          
1 36263U 99025DWQ 26094.47964067  .00009622  00000+0  26235-2 0  9997
2 36263  98.9935 347.4372 0034985 289.8870  69.8552 14.47225293896159
FENGYUN 1C DEB          
1 36267U 99025DWU 26094.30955715  .00003417  00000+0  18363-2 0  9992
2 36267  98.5685  41.2108 0124677 250.5984 266.5551 14.09636871881151
FENGYUN 1C DEB          
1 36269U 99025DWW 26085.13161448  .00002545  00000+0  79163-3 0  9994
2 36269  99.1207  36.5408 0232894 341.8786  17.4193 14.27580080891915
FENGYUN 1C DEB          
1 36272U 99025DWZ 26089.93083945  .00001019  00000+0  45827-3 0  9990
2 36272  99.1273 334.2465 0167862 321.8084  37.1292 14.17483277651499
FENGYUN 1C DEB          
1 36274U 99025DXB 26087.51466738  .00005801  00000+0  24591-2 0  9996
2 36274  99.1318 170.8380 0057035 285.7317  86.4759 14.24919461644919
FENGYUN 1C DEB          
1 36278U 99025DXF 26093.05375649  .00001143  00000+0  57467-3 0  9990
2 36278  99.1279  19.3198 0061355 335.9683  23.8631 14.17600494950534
FENGYUN 1C DEB          
1 36279U 99025DXG 26094.18414617  .00000321  00000+0  18445-3 0  9995
2 36279  98.5774  72.7033 0063041  92.2332 268.6062 14.14798170906294
FENGYUN 1C DEB          
1 36280U 99025DXH 26092.36416784  .00001974  00000+0  11184-2 0  9999
2 36280  98.7527 123.4601 0064610 111.9702 264.7443 14.10121449879139
FENGYUN 1C DEB          
1 36281U 99025DXJ 26093.06320943  .00002932  00000+0  29867-2 0  9991
2 36281  99.2593  14.2665 0285772 185.4460 174.3553 13.61037533860310
FENGYUN 1C DEB          
1 36283U 99025DXL 26089.25368837  .00047132  00000+0  25114-2 0  9995
2 36283  99.4287  83.8969 0058511  61.0251 299.6823 15.13541933682887
FENGYUN 1C DEB          
1 36644U 99025DXN 26094.31420495  .00002215  00000+0  23322-2 0  9990
2 36644  98.4303 222.3434 0284293 243.8330 113.3322 13.59508071630972
FENGYUN 1C DEB          
1 36645U 99025DXP 26091.31621930  .00001997  00000+0  20590-2 0  9995
2 36645  98.5076 228.1752 0299399 115.8901 247.3430 13.59048409590352
FENGYUN 1C DEB          
1 36647U 99025DXR 26093.57863571  .00004293  00000+0  28232-2 0  9999
2 36647  96.1191 201.1682 0231818 334.1435  24.8291 13.89919034319658
FENGYUN 1C DEB          
1 36652U 99025DXW 26094.18173132  .00005756  00000+0  24992-2 0  9994
2 36652  98.9321 183.0849 0050360  32.7811 327.6474 14.23855047659243
