[{"OBJECT_NAME":"FENGYUN 1C DEB","OBJECT_ID":"1999-025DWN","EPOCH":"2026-04-04T11:43:22.325376","MEAN_MOTION":13.45582994,"ECCENTRICITY":0.03547625,"INCLINATION":101.3594,"RA_OF_ASC_NODE":6.6357,"ARG_OF_PERICENTER":173.7765,"MEAN_ANOMALY":186.7944,"EPHEMERIS_TYPE":0,"CLASSIFICATION_TYPE":"U","NORAD_CAT_ID":36261,"ELEMENT_SET_NO":999,"REV_AT_EPOCH":85949,"BSTAR":0.0005228081,"MEAN_MOTION_DOT":3.99e-6,"MEAN_MOTION_DDOT":0},{"OBJECT_NAME":"FENGYUN 1C DEB","OBJECT_ID":"1999-025DWP","EPOCH":"2026-03-30T11:01:53.095584","MEAN_MOTION":14.27967362,"ECCENTRICITY":0.00601304,"INCLINATION":98.9504,"RA_OF_ASC_NODE":337.6893,"ARG_OF_PERICENTER":323.9854,"MEAN_ANOMALY":35.7281,"EPHEMERIS_TYPE":0,"CLASSIFICATION_TYPE":"U","NORAD_CAT_ID":36262,"ELEMENT_SET_NO":999,"REV_AT_EPOCH":91034,"BSTAR":0.00029013476,"MEAN_MOTION_DOT":6.86e-6,"MEAN_MOTION_DDOT":0},{"OBJECT_NAME":"FENGYUN 1C DEB","OBJECT_ID":"1999-025DWQ","EPOCH":"2026-04-04T11:30:40.953888","MEAN_MOTION":14.47225293,"ECCENTRICITY":0.00349857,"INCLINATION":98.9935,"RA_OF_ASC_NODE":347.4372,"ARG_OF_PERICENTER":289.887,"MEAN_ANOMALY":69.8552,"EPHEMERIS_TYPE":0,"CLASSIFICATION_TYPE":"U","NORAD_CAT_ID":36263,"ELEMENT_SET_NO":999,"REV_AT_EPOCH":89615,"BSTAR":0.0026234513,"MEAN_MOTION_DOT":9.622e-5,"MEAN_MOTION_DDOT":0},{"OBJECT_NAME":"FENGYUN 1C DEB","OBJECT_ID":"1999-025DWU","EPOCH":"2026-04-04T07:25:45.737760","MEAN_MOTION":14.09636871,"ECCENTRICITY":0.01246779,"INCLINATION":98.5685,"RA_OF_ASC_NODE":41.2108,"ARG_OF_PERICENTER":250.5984,"MEAN_ANOMALY":266.5551,"EPHEMERIS_TYPE":0,"CLASSIFICATION_TYPE":"U","NORAD_CAT_ID":36267,"ELEMENT_SET_NO":999,"REV_AT_EPOCH":88115,"BSTAR":0.0018362555,"MEAN_MOTION_DOT":3.417e-5,"MEAN_MOTION_DDOT":0},{"OBJECT_NAME":"FENGYUN 1C DEB","OBJECT_ID":"1999-025DWW","EPOCH":"2026-03-26T03:09:31.491072","MEAN_MOTION":14.2758008,"ECCENTRICITY":0.02328942,"INCLINATION":99.1207,"RA_OF_ASC_NODE":36.5408,"ARG_OF_PERICENTER":341.8786,"MEAN_ANOMALY":17.4193,"EPHEMERIS_TYPE":0,"CLASSIFICATION_TYPE":"U","NORAD_CAT_ID":36269,"ELEMENT_SET_NO":999,"REV_AT_EPOCH":89191,"BSTAR":0.00079162682,"MEAN_MOTION_DOT":2.545e-5,"MEAN_MOTION_DDOT":0},{"OBJECT_NAME":"FENGYUN 1C DEB","OBJECT_ID":"1999-025DWZ","EPOCH":"2026-03-30T22:20:24.528480","MEAN_MOTION":14.17483277,"ECCENTRICITY":0.0167862,"INCLINATION":99.1273,"RA_OF_ASC_NODE":334.2465,"ARG_OF_PERICENTER":321.8084,"MEAN_ANOMALY":37.1292,"EPHEMERIS_TYPE":0,"CLASSIFICATION_TYPE":"U","NORAD_CAT_ID":36272,"ELEMENT_SET_NO":999,"REV_AT_EPOCH":65149,"BSTAR":0.00045827,"MEAN_MOTION_DOT":1.019e-5,"MEAN_MOTION_DDOT":0},{"OBJECT_NAME":"FENGYUN 1C DEB","OBJECT_ID":"1999-025DXB","EPOCH":"2026-03-28T12:21:07.261632","MEAN_MOTION":14.24919461,"ECCENTRICITY":0.00570351,"INCLINATION":99.1318,"RA_OF_ASC_NODE":170.838,"ARG_OF_PERICENTER":285.7317,"MEAN_ANOMALY":86.4759,"EPHEMERIS_TYPE":0,"CLASSIFICATION_TYPE":"U","NORAD_CAT_ID":36274,"ELEMENT_SET_NO":999,"REV_AT_EPOCH":64491,"BSTAR":0.0024591117,"MEAN_MOTION_DOT":5.801e-5,"MEAN_MOTION_DDOT":0},{"OBJECT_NAME":"FENGYUN 1C DEB","OBJECT_ID":"1999-025DXF","EPOCH":"2026-04-03T01:17:24.560736","MEAN_MOTION":14.17600494,"ECCENTRICITY":0.00613553,"INCLINATION":99.1279,"RA_OF_ASC_NODE":19.3198,"ARG_OF_PERICENTER":335.9683,"MEAN_ANOMALY":23.8631,"EPHEMERIS_TYPE":0,"CLASSIFICATION_TYPE":"U","NORAD_CAT_ID":36278,"ELEMENT_SET_NO":999,"REV_AT_EPOCH":95053,"BSTAR":0.00057466635,"MEAN_MOTION_DOT":1.143e-5,"MEAN_MOTION_DDOT":0},{"OBJECT_NAME":"FENGYUN 1C DEB","OBJECT_ID":"1999-025DXG","EPOCH":"2026-04-04T04:25:10.229088","MEAN_MOTION":14.1479817,"ECCENTRICITY":0.00630419,"INCLINATION":98.5774,"RA_OF_ASC_NODE":72.7033,"ARG_OF_PERICENTER":92.2332,"MEAN_ANOMALY":268.6062,"EPHEMERIS_TYPE":0,"CLASSIFICATION_TYPE":"U","NORAD_CAT_ID":36279,"ELEMENT_SET_NO":999,"REV_AT_EPOCH":90629,"BSTAR":0.00018445218,"MEAN_MOTION_DOT":3.21e-6,"MEAN_MOTION_DDOT":0},{"OBJECT_NAME":"FENGYUN 1C DEB","OBJECT_ID":"1999-025DXH","EPOCH":"2026-04-02T08:44:24.101376","MEAN_MOTION":14.10121449,"ECCENTRICITY":0.00646107,"INCLINATION":98.7527,"RA_OF_ASC_NODE":123.4601,"ARG_OF_PERICENTER":111.9702,"MEAN_ANOMALY":264.7443,"EPHEMERIS_TYPE":0,"CLASSIFICATION_TYPE":"U","NORAD_CAT_ID":36280,"ELEMENT_SET_NO":999,"REV_AT_EPOCH":87913,"BSTAR":0.0011184137,"MEAN_MOTION_DOT":1.974e-5,"MEAN_MOTION_DDOT":0},{"OBJECT_NAME":"FENGYUN 1C DEB","OBJECT_ID":"1999-025DXJ","EPOCH":"2026-04-03T01:31:01.294752","MEAN_MOTION":13.61037533,"ECCENTRICITY":0.02857721,"INCLINATION":99.2593,"RA_OF_ASC_NODE":14.2665,"ARG_OF_PERICENTER":185.446,"MEAN_ANOMALY":174.3553,"EPHEMERIS_TYPE":0,"CLASSIFICATION_TYPE":"U","NORAD_CAT_ID":36281,"ELEMENT_SET_NO":999,"REV_AT_EPOCH":86031,"BSTAR":0.0029867306,"MEAN_MOTION_DOT":2.932e-5,"MEAN_MOTION_DDOT":0},{"OBJECT_NAME":"FENGYUN 1C DEB","OBJECT_ID":"1999-025DXL","EPOCH":"2026-03-30T06:05:18.675168","MEAN_MOTION":15.13541933,"ECCENTRICITY":0.00585117,"INCLINATION":99.4287,"RA_OF_ASC_NODE":83.8969,"ARG_OF_PERICENTER":61.0251,"MEAN_ANOMALY":299.6823,"EPHEMERIS_TYPE":0,"CLASSIFICATION_TYPE":"U","NORAD_CAT_ID":36283,"ELEMENT_SET_NO":999,"REV_AT_EPOCH":68288,"BSTAR":0.0025114376,"MEAN_MOTION_DOT":0.00047132,"MEAN_MOTION_DDOT":0},{"OBJECT_NAME":"FENGYUN 1C DEB","OBJECT_ID":"1999-025DXN","EPOCH":"2026-04-04T07:32:27.307680","MEAN_MOTION":13.59508071,"ECCENTRICITY":0.02842932,"INCLINATION":98.4303,"RA_OF_ASC_NODE":222.3434,"ARG_OF_PERICENTER":243.833,"MEAN_ANOMALY":113.3322,"EPHEMERIS_TYPE":0,"CLASSIFICATION_TYPE":"U","NORAD_CAT_ID":36644,"ELEMENT_SET_NO":999,"REV_AT_EPOCH":63097,"BSTAR":0.0023321856,"MEAN_MOTION_DOT":2.215e-5,"MEAN_MOTION_DDOT":0},{"OBJECT_NAME":"FENGYUN 1C DEB","OBJECT_ID":"1999-025DXP","EPOCH":"2026-04-01T07:35:21.347520","MEAN_MOTION":13.59048409,"ECCENTRICITY":0.02993992,"INCLINATION":98.5076,"RA_OF_ASC_NODE":228.1752,"ARG_OF_PERICENTER":115.8901,"MEAN_ANOMALY":247.343,"EPHEMERIS_TYPE":0,"CLASSIFICATION_TYPE":"U","NORAD_CAT_ID":36645,"ELEMENT_SET_NO":999,"REV_AT_EPOCH":59035,"BSTAR":0.0020590245,"MEAN_MOTION_DOT":1.997e-5,"MEAN_MOTION_DDOT":0},{"OBJECT_NAME":"FENGYUN 1C DEB","OBJECT_ID":"1999-025DXR","EPOCH":"2026-04-03T13:53:14.125344","MEAN_MOTION":13.89919034,"ECCENTRICITY":0.0231818,"INCLINATION":96.1191,"RA_OF_ASC_NODE":201.1682,"ARG_OF_PERICENTER":334.1435,"MEAN_ANOMALY":24.8291,"EPHEMERIS_TYPE":0,"CLASSIFICATION_TYPE":"U","NORAD_CAT_ID":36647,"ELEMENT_SET_NO":999,"REV_AT_EPOCH":31965,"BSTAR":0.0028232,"MEAN_MOTION_DOT":4.293e-5,"MEAN_MOTION_DDOT":0},{"OBJECT_NAME":"FENGYUN 1C DEB","OBJECT_ID":"1999-025DXW","EPOCH":"2026-04-04T04:21:41.586048","MEAN_MOTION":14.23855047,"ECCENTRICITY":0.00503609,"INCLINATION":98.9321,"RA_OF_ASC_NODE":183.0849,"ARG_OF_PERICENTER":32.7811,"MEAN_ANOMALY":327.6474,"EPHEMERIS_TYPE":0,"CLASSIFICATION_TYPE":"U","NORAD_CAT_ID":36652,"ELEMENT_SET_NO":999,"REV_AT_EPOCH":65924,"BSTAR":0.0024991573,"MEAN_MOTION_DOT":5.756e-5,"MEAN_MOTION_DDOT":0}]
